start=new Date('2022-12-31T00:00:00.000Z').valueOf();
sats=[{"SEMIMAJOR_AXIS":"6917.910","ECCENTRICITY":"0.00027220","MEAN_ELEMENT_THEORY":"SGP4","OBJECT_ID":"2022-022X","GP_ID":"221789027","REV_AT_EPOCH":"4713","MEAN_ANOMALY":"323.7667","ELEMENT_SET_NO":"999","MEAN_MOTION":"15.08830313","TIME_SYSTEM":"UTC","CLASSIFICATION_TYPE":"U","RCS_SIZE":"LARGE","EPOCH":"2022-12-29T23:26:38.030784","INCLINATION":"53.2171","TLE_LINE2":"2 51873  53.2171 202.2103 0002722  36.3510 323.7667 15.08830313 47137","SITE":"AFETR","TLE_LINE1":"1 51873U 22022X   22363.97682906 -.00001466  00000-0 -74025-4 0  9996","COUNTRY_CODE":"US","APOAPSIS":"541.658","REF_FRAME":"TEME","MEAN_MOTION_DDOT":"0.0000000000000","PERIOD":"95.438","NORAD_CAT_ID":"51873","LAUNCH_DATE":"2022-03-03","CENTER_NAME":"EARTH","OBJECT_TYPE":"PAYLOAD","MEAN_MOTION_DOT":"-0.00001466","EPHEMERIS_TYPE":"0","DECAY_DATE":null,"FILE":"3726810","ARG_OF_PERICENTER":"36.3510","PERIAPSIS":"537.892","OBJECT_NAME":"STARLINK-3582","BSTAR":"-0.00007402500000","RA_OF_ASC_NODE":"202.2103"},{"ELEMENT_SET_NO":"999","REV_AT_EPOCH":"4713","MEAN_ANOMALY":"316.1793","GP_ID":"221789276","OBJECT_ID":"2022-022Y","ECCENTRICITY":"0.00022780","SEMIMAJOR_AXIS":"6917.920","MEAN_ELEMENT_THEORY":"SGP4","SITE":"AFETR","TLE_LINE1":"1 51874U 22022Y   22364.05043552 -.00001601  00000-0 -82553-4 0  9991","COUNTRY_CODE":"US","TLE_LINE2":"2 51874  53.2172 201.8906 0002278  43.9380 316.1793 15.08826974 47134","INCLINATION":"53.2172","CLASSIFICATION_TYPE":"U","EPOCH":"2022-12-30T01:12:37.628928","RCS_SIZE":"LARGE","MEAN_MOTION":"15.08826974","TIME_SYSTEM":"UTC","LAUNCH_DATE":"2022-03-03","NORAD_CAT_ID":"51874","MEAN_MOTION_DDOT":"0.0000000000000","PERIOD":"95.438","APOAPSIS":"541.361","REF_FRAME":"TEME","BSTAR":"-0.00008255300000","OBJECT_NAME":"STARLINK-3574","RA_OF_ASC_NODE":"201.8906","DECAY_DATE":null,"PERIAPSIS":"538.209","ARG_OF_PERICENTER":"43.9380","FILE":"3726810","EPHEMERIS_TYPE":"0","CENTER_NAME":"EARTH","MEAN_MOTION_DOT":"-0.00001601","OBJECT_TYPE":"PAYLOAD"},{"EPHEMERIS_TYPE":"0","CENTER_NAME":"EARTH","OBJECT_TYPE":"PAYLOAD","MEAN_MOTION_DOT":"0.00000843","OBJECT_NAME":"STARLINK-3585","BSTAR":"0.00007109200000","RA_OF_ASC_NODE":"199.5742","DECAY_DATE":null,"FILE":"3726765","PERIAPSIS":"538.134","ARG_OF_PERICENTER":"53.3230","MEAN_MOTION_DDOT":"0.0000000000000","PERIOD":"95.438","APOAPSIS":"541.378","REF_FRAME":"TEME","LAUNCH_DATE":"2022-03-03","NORAD_CAT_ID":"51875","CLASSIFICATION_TYPE":"U","RCS_SIZE":"LARGE","EPOCH":"2022-12-30T13:35:52.159488","MEAN_MOTION":"15.08836514","TIME_SYSTEM":"UTC","TLE_LINE1":"1 51875U 22022Z   22364.56657592  .00000843  00000-0  71092-4 0  9994","SITE":"AFETR","COUNTRY_CODE":"US","INCLINATION":"53.2137","TLE_LINE2":"2 51875  53.2137 199.5742 0002344  53.3230 306.7977 15.08836514 47220","OBJECT_ID":"2022-022Z","GP_ID":"221761983","SEMIMAJOR_AXIS":"6917.891","ECCENTRICITY":"0.00023440","MEAN_ELEMENT_THEORY":"SGP4","ELEMENT_SET_NO":"999","REV_AT_EPOCH":"4722","MEAN_ANOMALY":"306.7977"},{"INCLINATION":"53.2163","TLE_LINE2":"2 51876  53.2163 201.0009 0003379  32.2396 327.8802 15.08831007 47170","SITE":"AFETR","TLE_LINE1":"1 51876U 22022AA  22364.24547105 -.00001697  00000-0 -88484-4 0  9991","COUNTRY_CODE":"US","MEAN_MOTION":"15.08831007","TIME_SYSTEM":"UTC","CLASSIFICATION_TYPE":"U","RCS_SIZE":"LARGE","EPOCH":"2022-12-30T05:53:28.698720","REV_AT_EPOCH":"4717","MEAN_ANOMALY":"327.8802","ELEMENT_SET_NO":"999","SEMIMAJOR_AXIS":"6917.908","ECCENTRICITY":"0.00033790","MEAN_ELEMENT_THEORY":"SGP4","OBJECT_ID":"2022-022AA","GP_ID":"221787775","DECAY_DATE":null,"FILE":"3726810","ARG_OF_PERICENTER":"32.2396","PERIAPSIS":"537.435","OBJECT_NAME":"STARLINK-3583","BSTAR":"-0.00008848400000","RA_OF_ASC_NODE":"201.0009","CENTER_NAME":"EARTH","OBJECT_TYPE":"PAYLOAD","MEAN_MOTION_DOT":"-0.00001697","EPHEMERIS_TYPE":"0","NORAD_CAT_ID":"51876","LAUNCH_DATE":"2022-03-03","APOAPSIS":"542.110","REF_FRAME":"TEME","MEAN_MOTION_DDOT":"0.0000000000000","PERIOD":"95.438"},{"REV_AT_EPOCH":"4735","MEAN_ANOMALY":"310.7733","ELEMENT_SET_NO":"999","MEAN_ELEMENT_THEORY":"SGP4","ECCENTRICITY":"0.00019560","SEMIMAJOR_AXIS":"6917.877","GP_ID":"221788527","OBJECT_ID":"2022-022AB","TLE_LINE2":"2 51877  53.2165 189.5994 0001956  49.3429 310.7733 15.08841098 47356","INCLINATION":"53.2165","COUNTRY_CODE":"US","TLE_LINE1":"1 51877U 22022AB  22364.55918027  .00000726  00000-0  63702-4 0  9997","SITE":"AFETR","TIME_SYSTEM":"UTC","MEAN_MOTION":"15.08841098","EPOCH":"2022-12-30T13:25:13.175328","RCS_SIZE":"LARGE","CLASSIFICATION_TYPE":"U","NORAD_CAT_ID":"51877","LAUNCH_DATE":"2022-03-03","REF_FRAME":"TEME","APOAPSIS":"541.095","PERIOD":"95.437","MEAN_MOTION_DDOT":"0.0000000000000","PERIAPSIS":"538.389","ARG_OF_PERICENTER":"49.3429","FILE":"3726810","DECAY_DATE":null,"RA_OF_ASC_NODE":"189.5994","BSTAR":"0.00006370200000","OBJECT_NAME":"STARLINK-3556","MEAN_MOTION_DOT":"0.00000726","OBJECT_TYPE":"PAYLOAD","CENTER_NAME":"EARTH","EPHEMERIS_TYPE":"0"},{"REF_FRAME":"TEME","APOAPSIS":"541.455","PERIOD":"95.438","MEAN_MOTION_DDOT":"0.0000000000000","NORAD_CAT_ID":"51878","LAUNCH_DATE":"2022-03-03","OBJECT_TYPE":"PAYLOAD","MEAN_MOTION_DOT":"0.00001978","CENTER_NAME":"EARTH","EPHEMERIS_TYPE":"0","FILE":"3726765","ARG_OF_PERICENTER":"45.1602","PERIAPSIS":"538.124","DECAY_DATE":null,"RA_OF_ASC_NODE":"199.5628","OBJECT_NAME":"STARLINK-3575","BSTAR":"0.00014241000000","MEAN_ELEMENT_THEORY":"SGP4","SEMIMAJOR_AXIS":"6917.924","ECCENTRICITY":"0.00024070","OBJECT_ID":"2022-022AC","GP_ID":"221761987","REV_AT_EPOCH":"4722","MEAN_ANOMALY":"314.9586","ELEMENT_SET_NO":"999","TIME_SYSTEM":"UTC","MEAN_MOTION":"15.08825577","RCS_SIZE":"LARGE","EPOCH":"2022-12-30T13:39:48.199104","CLASSIFICATION_TYPE":"U","INCLINATION":"53.2145","TLE_LINE2":"2 51878  53.2145 199.5628 0002407  45.1602 314.9586 15.08825577 47221","COUNTRY_CODE":"US","TLE_LINE1":"1 51878U 22022AC  22364.56930786  .00001978  00000-0  14241-3 0  9998","SITE":"AFETR"},{"EPHEMERIS_TYPE":"0","OBJECT_TYPE":"PAYLOAD","MEAN_MOTION_DOT":"0.00001217","CENTER_NAME":"EARTH","RA_OF_ASC_NODE":"189.9286","OBJECT_NAME":"STARLINK-3572","BSTAR":"0.00009451700000","FILE":"3726810","ARG_OF_PERICENTER":"59.0239","PERIAPSIS":"538.458","DECAY_DATE":null,"PERIOD":"95.437","MEAN_MOTION_DDOT":"0.0000000000000","REF_FRAME":"TEME","APOAPSIS":"540.992","LAUNCH_DATE":"2022-03-03","NORAD_CAT_ID":"51879","RCS_SIZE":"LARGE","EPOCH":"2022-12-30T11:39:13.342176","CLASSIFICATION_TYPE":"U","TIME_SYSTEM":"UTC","MEAN_MOTION":"15.08846706","COUNTRY_CODE":"US","TLE_LINE1":"1 51879U 22022AD  22364.48557109  .00001217  00000-0  94517-4 0  9995","SITE":"AFETR","INCLINATION":"53.2161","TLE_LINE2":"2 51879  53.2161 189.9286 0001832  59.0239 301.0933 15.08846706 47347","OBJECT_ID":"2022-022AD","GP_ID":"221788026","MEAN_ELEMENT_THEORY":"SGP4","SEMIMAJOR_AXIS":"6917.860","ECCENTRICITY":"0.00018320","ELEMENT_SET_NO":"999","REV_AT_EPOCH":"4734","MEAN_ANOMALY":"301.0933"},{"OBJECT_NAME":"STARLINK-3566","BSTAR":"0.00003494200000","RA_OF_ASC_NODE":"202.3879","DECAY_DATE":null,"FILE":"3726810","PERIAPSIS":"537.797","ARG_OF_PERICENTER":"37.8201","EPHEMERIS_TYPE":"0","CENTER_NAME":"EARTH","OBJECT_TYPE":"PAYLOAD","MEAN_MOTION_DOT":"0.00000268","LAUNCH_DATE":"2022-03-03","NORAD_CAT_ID":"51880","MEAN_MOTION_DDOT":"0.0000000000000","PERIOD":"95.437","APOAPSIS":"541.662","REF_FRAME":"TEME","TLE_LINE1":"1 51880U 22022AE  22363.93729356  .00000268  00000-0  34942-4 0  9992","SITE":"AFETR","COUNTRY_CODE":"US","INCLINATION":"53.2145","TLE_LINE2":"2 51880  53.2145 202.3879 0002793  37.8201 322.2986 15.08845193 47127","CLASSIFICATION_TYPE":"U","RCS_SIZE":"LARGE","EPOCH":"2022-12-29T22:29:42.163584","MEAN_MOTION":"15.08845193","TIME_SYSTEM":"UTC","ELEMENT_SET_NO":"999","MEAN_ANOMALY":"322.2986","REV_AT_EPOCH":"4712","OBJECT_ID":"2022-022AE","GP_ID":"221788276","SEMIMAJOR_AXIS":"6917.865","ECCENTRICITY":"0.00027930","MEAN_ELEMENT_THEORY":"SGP4"},{"APOAPSIS":"541.835","REF_FRAME":"TEME","MEAN_MOTION_DDOT":"0.0000000000000","PERIOD":"95.439","NORAD_CAT_ID":"51881","LAUNCH_DATE":"2022-03-03","CENTER_NAME":"EARTH","MEAN_MOTION_DOT":"0.00001862","OBJECT_TYPE":"PAYLOAD","EPHEMERIS_TYPE":"0","DECAY_DATE":null,"ARG_OF_PERICENTER":"44.9246","PERIAPSIS":"537.766","FILE":"3726714","BSTAR":"0.00013516000000","OBJECT_NAME":"STARLINK-3504","RA_OF_ASC_NODE":"189.6700","ECCENTRICITY":"0.00029410","SEMIMAJOR_AXIS":"6917.936","MEAN_ELEMENT_THEORY":"SGP4","GP_ID":"221762491","OBJECT_ID":"2022-022AF","REV_AT_EPOCH":"4740","MEAN_ANOMALY":"315.1984","ELEMENT_SET_NO":"999","MEAN_MOTION":"15.08821927","TIME_SYSTEM":"UTC","CLASSIFICATION_TYPE":"U","EPOCH":"2022-12-30T13:04:02.229600","RCS_SIZE":"LARGE","TLE_LINE2":"2 51881  53.2154 189.6700 0002941  44.9246 315.1984 15.08821927 47400","INCLINATION":"53.2154","SITE":"AFETR","TLE_LINE1":"1 51881U 22022AF  22364.54447025  .00001862  00000-0  13516-3 0  9995","COUNTRY_CODE":"US"},{"DECAY_DATE":null,"PERIAPSIS":"537.529","ARG_OF_PERICENTER":"34.8458","FILE":"3726810","BSTAR":"0.00000858340000","OBJECT_NAME":"STARLINK-3570","RA_OF_ASC_NODE":"192.2799","CENTER_NAME":"EARTH","MEAN_MOTION_DOT":"-0.00000152","OBJECT_TYPE":"PAYLOAD","EPHEMERIS_TYPE":"0","NORAD_CAT_ID":"51882","LAUNCH_DATE":"2022-03-03","APOAPSIS":"542.001","REF_FRAME":"TEME","MEAN_MOTION_DDOT":"0.0000000000000","PERIOD":"95.438","TLE_LINE2":"2 51882  53.2160 192.2799 0003232  34.8458 325.2745 15.08833594 47313","INCLINATION":"53.2160","TLE_LINE1":"1 51882U 22022AG  22363.95934279 -.00000152  00000-0  85834-5 0  9998","SITE":"AFETR","COUNTRY_CODE":"US","MEAN_MOTION":"15.08833594","TIME_SYSTEM":"UTC","CLASSIFICATION_TYPE":"U","EPOCH":"2022-12-29T23:01:27.217056","RCS_SIZE":"LARGE","MEAN_ANOMALY":"325.2745","REV_AT_EPOCH":"4731","ELEMENT_SET_NO":"999","ECCENTRICITY":"0.00032320","SEMIMAJOR_AXIS":"6917.900","MEAN_ELEMENT_THEORY":"SGP4","GP_ID":"221789277","OBJECT_ID":"2022-022AG"}];
